COSMOS 2530 (RODNIK-S *)
1 43751U 18097A   26135.29228954  .00000051  00000+0  29723-3 0  9994
2 43751  82.5146 242.6930 0020785 107.9865 252.3482 12.42880737338206
COSMOS 2531 (RODNIK-S *)
1 43752U 18097B   26135.31538001 -.00000003  00000+0 -90605-4 0  9992
2 43752  82.5191 243.7261 0017887 125.7071 234.5677 12.42912126338220
COSMOS 2532 (RODNIK-S *)
1 43753U 18097C   26135.34357145  .00000010  00000+0 -12408-5 0  9997
2 43753  82.5137 242.5094 0019259 127.7774 232.5053 12.42908851338191
MINXSS-2                
1 43758U 18099A   26135.20549715  .00018542  00000+0  39915-3 0  9993
2 43758  97.4553 210.5813 0007290  36.1808 323.9932 15.44648510409031
SIRION PATHFINDER-2     
1 43759U 18099B   26135.07799543  .00003601  00000+0  20044-3 0  9998
2 43759  97.4279 184.9258 0010135  61.6089 298.6163 15.14229080407610
AISTECHSAT 2            
1 43768U 18099L   26135.07042751  .00003772  00000+0  20493-3 0  9997
2 43768  97.4321 183.8334 0006103  66.1208 294.0663 15.15091312407266
FOX-1CLIFF (AO-95)      
1 43770U 18099N   26135.10144583  .00008011  00000+0  31432-3 0  9996
2 43770  97.4409 195.4854 0010470 104.7227 255.5173 15.25953561408177
RANGE-A                 
1 43773U 18099R   26135.18128582  .00002733  00000+0  15782-3 0  9993
2 43773  97.3993 178.7292 0012132 101.1506 259.1090 15.13084325407509
SNUSAT-2                
1 43782U 18099AA  26135.12255363  .00005535  00000+0  25009-3 0  9991
2 43782  97.4086 189.0235 0011583  58.6593 301.5775 15.21301926408002
SNUGLITE                
1 43784U 18099AC  26135.11184405  .00008008  00000+0  31024-3 0  9992
2 43784  97.3899 189.7325 0004090  67.9740 292.1933 15.26415263408279
ITASAT                  
1 43786U 18099AE  26135.14631946  .00004922  00000+0  24053-3 0  9999
2 43786  97.4056 187.3243 0014376 107.2185 253.0624 15.18604218407890
EAGLET-I                
1 43790U 18099AJ  26135.11284453  .00002419  00000+0  14173-3 0  9999
2 43790  97.4258 185.6599 0012892  99.8330 260.4358 15.12669721407332
ESEO                    
1 43792U 18099AL  26135.11850359  .00001522  00000+0  11377-3 0  9992
2 43792  97.3999 173.9203 0013458  87.4199 272.8568 15.04139499406831
THEA                    
1 43796U 18099AQ  26135.13869673  .00012160  00000+0  37343-3 0  9998
2 43796  97.4464 204.5371 0008130  53.1838 307.0149 15.33839919407621
ASTROCAST 0.1           
1 43798U 18099AS  26135.17264707  .00017949  00000+0  35350-3 0  9997
2 43798  97.4394 212.6978 0003748 350.8038   9.3142 15.47284144409320
JY1SAT (JO-97)          
1 43803U 18099AX  26135.13424294  .00011397  00000+0  36477-3 0  9991
2 43803  97.4156 197.8790 0006190  44.4123 315.7614 15.32550008408566
SUOMI-100               
1 43804U 18099AY  26135.13534736  .00007913  00000+0  29538-3 0  9994
2 43804  97.4214 195.6680 0010853  46.0183 314.1949 15.27610985408379
CENTAURI-1              
1 43809U 18099BD  26135.07548251  .00003806  00000+0  20101-3 0  9993
2 43809  97.4247 187.5104 0015876  85.1368 275.1678 15.16004508407482
GLOBAL-2                
1 43812U 18099BG  26135.10872653  .00002142  00000+0  14135-3 0  9999
2 43812  97.3584 172.9984 0004170 266.2413  93.8339 15.08468733406923
SEAHAWK-1               
1 43820U 18099BQ  26135.14329627  .00006103  00000+0  26817-3 0  9991
2 43820  97.3984 188.1427 0009796  71.9784 288.2519 15.22230145407503
SAUDISAT 5A             
1 43831U 18102A   26135.28721494  .00003101  00000+0  11721-3 0  9994
2 43831  97.3089 197.5071 0008180 245.5519 114.4867 15.27689630410659
SAUDISAT 5B             
1 43833U 18102C   26135.31179416  .00003024  00000+0  11343-3 0  9995
2 43833  97.3193 200.5412 0008847 248.6572 111.3724 15.27965271410773
ISAT                    
1 43879U 18111D   26135.30512331  .00044450  00000+0  55413-3 0  9995
2 43879  97.5905  68.1478 0008020  77.5168 282.6985 15.59746710406034
UWE-4                   
1 43880U 18111E   26135.24925140  .00016896  00000+0  37152-3 0  9999
2 43880  97.5866  62.1788 0010642  86.0895 274.1569 15.44010144405699
D-STAR ONE (SPARROW)    
1 43881U 18111F   26135.30426257  .00068452  00000+0  66440-3 0  9999
2 43881  97.6129  73.2582 0007567 103.1625 257.0479 15.66093639406215
JILIN-1 09              
1 43943U 19005B   26135.27194474  .00002869  00000+0  13563-3 0  9998
2 43943  97.4722 230.5269 0002326 164.7932 195.3373 15.20203104404140
JILIN-1 10              
1 43946U 19005E   26135.26442257  .00003507  00000+0  14191-3 0  9993
2 43946  97.4763 234.0833 0008993  44.2176 315.9779 15.25340669404291
EGYPTSAT-A (MISRSAT-A)  
1 44047U 19008A   26135.31732446  .00000007  00000+0  88784-5 0  9990
2 44047  98.0058 200.5631 0001319  79.3863 280.7493 14.72265622388401
