OBJECT_NAME,OBJECT_ID,EPOCH,MEAN_MOTION,ECCENTRICITY,INCLINATION,RA_OF_ASC_NODE,ARG_OF_PERICENTER,MEAN_ANOMALY,EPHEMERIS_TYPE,CLASSIFICATION_TYPE,NORAD_CAT_ID,ELEMENT_SET_NO,REV_AT_EPOCH,BSTAR,MEAN_MOTION_DOT,MEAN_MOTION_DDOT
COSMOS 2530 (RODNIK-S 16),2018-097A,2026-05-15T07:00:53.816256,12.42880737,.00207851,82.5146,242.6930,107.9865,252.3482,0,U,43751,999,33820,.29722556E-3,.51E-6,0
COSMOS 2531 (RODNIK-S 17),2018-097B,2026-05-15T07:34:08.832864,12.42912126,.00178875,82.5191,243.7261,125.7071,234.5677,0,U,43752,999,33822,-.90604536E-4,-.3E-7,0
COSMOS 2532 (RODNIK-S 18),2018-097C,2026-05-15T08:14:44.573280,12.42908851,.00192591,82.5137,242.5094,127.7774,232.5053,0,U,43753,999,33819,-.1240821E-5,.1E-6,0
MINXSS-2,2018-099A,2026-05-15T04:55:54.953760,15.44648510,.000729,97.4553,210.5813,36.1808,323.9932,0,U,43758,999,40903,.39914923E-3,.18542E-3,0
SIRION PATHFINDER-2,2018-099B,2026-05-15T01:52:18.805152,15.14229080,.00101356,97.4279,184.9258,61.6089,298.6163,0,U,43759,999,40761,.20044057E-3,.3601E-4,0
AISTECHSAT 2,2018-099L,2026-05-15T01:41:24.936864,15.15091312,.00061039,97.4321,183.8334,66.1208,294.0663,0,U,43768,999,40726,.20493173E-3,.3772E-4,0
FOX-1CLIFF (AO-95),2018-099N,2026-05-15T02:26:04.919712,15.25953561,.00104705,97.4409,195.4854,104.7227,255.5173,0,U,43770,999,40817,.31432193E-3,.8011E-4,0
RANGE-A,2018-099R,2026-05-15T04:21:03.094848,15.13084325,.00121327,97.3993,178.7292,101.1506,259.1090,0,U,43773,999,40750,.15782061E-3,.2733E-4,0
SNUSAT-2,2018-099AA,2026-05-15T02:56:28.633632,15.21301926,.00115835,97.4086,189.0235,58.6593,301.5775,0,U,43782,999,40800,.25008679E-3,.5535E-4,0
SNUGLITE,2018-099AC,2026-05-15T02:41:03.325920,15.26415263,.00040907,97.3899,189.7325,67.9740,292.1933,0,U,43784,999,40827,.31024245E-3,.8008E-4,0
ITASAT,2018-099AE,2026-05-15T03:30:42.001344,15.18604218,.00143761,97.4056,187.3243,107.2185,253.0624,0,U,43786,999,40789,.24053068E-3,.4922E-4,0
EAGLET-I,2018-099AJ,2026-05-15T02:42:29.767392,15.12669721,.00128921,97.4258,185.6599,99.8330,260.4358,0,U,43790,999,40733,.1417264E-3,.2419E-4,0
ESEO,2018-099AL,2026-05-15T02:50:38.710176,15.04139499,.00134582,97.3999,173.9203,87.4199,272.8568,0,U,43792,999,40683,.11376897E-3,.1522E-4,0
THEA,2018-099AQ,2026-05-15T03:19:43.397472,15.33839919,.000813,97.4464,204.5371,53.1838,307.0149,0,U,43796,999,40762,.37343226E-3,.1216E-3,0
ASTROCAST 0.1,2018-099AS,2026-05-15T04:08:36.706848,15.47284144,.00037488,97.4394,212.6978,350.8038,9.3142,0,U,43798,999,40932,.35349929E-3,.17949E-3,0
JY1SAT (JO-97),2018-099AX,2026-05-15T03:13:18.590016,15.32550008,.00061902,97.4156,197.8790,44.4123,315.7614,0,U,43803,999,40856,.36476655E-3,.11397E-3,0
SUOMI-100,2018-099AY,2026-05-15T03:14:54.011904,15.27610985,.00108537,97.4214,195.6680,46.0183,314.1949,0,U,43804,999,40837,.29538158E-3,.7913E-4,0
CENTAURI-1,2018-099BD,2026-05-15T01:48:41.688864,15.16004508,.0015876,97.4247,187.5104,85.1368,275.1678,0,U,43809,999,40748,.20100544E-3,.3806E-4,0
GLOBAL-2,2018-099BG,2026-05-15T02:36:33.972192,15.08468733,.00041706,97.3584,172.9984,266.2413,93.8339,0,U,43812,999,40692,.14134519E-3,.2142E-4,0
SEAHAWK-1,2018-099BQ,2026-05-15T03:26:20.797728,15.22230145,.00097964,97.3984,188.1427,71.9784,288.2519,0,U,43820,999,40750,.26817063E-3,.6103E-4,0
SAUDISAT 5A,2018-102A,2026-05-15T06:53:35.370816,15.27689630,.000818,97.3089,197.5071,245.5519,114.4867,0,U,43831,999,41065,.11721409E-3,.3101E-4,0
SAUDISAT 5B,2018-102C,2026-05-15T07:28:59.015424,15.27965271,.00088478,97.3193,200.5412,248.6572,111.3724,0,U,43833,999,41077,.11343101E-3,.3024E-4,0
ISAT,2018-111D,2026-05-15T07:19:22.653984,15.59746710,.00080203,97.5905,68.1478,77.5168,282.6985,0,U,43879,999,40603,.55413011E-3,.4445E-3,0
UWE-4,2018-111E,2026-05-15T05:58:55.320960,15.44010144,.0010642,97.5866,62.1788,86.0895,274.1569,0,U,43880,999,40569,.37152444E-3,.16896E-3,0
D-STAR ONE (SPARROW),2018-111F,2026-05-15T07:18:08.286048,15.66093639,.00075676,97.6129,73.2582,103.1625,257.0479,0,U,43881,999,40621,.66440041E-3,.68452E-3,0
JILIN-1 09,2019-005B,2026-05-15T06:31:36.025536,15.20203104,.0002326,97.4722,230.5269,164.7932,195.3373,0,U,43943,999,40414,.135629E-3,.2869E-4,0
JILIN-1 10,2019-005E,2026-05-15T06:20:46.110048,15.25340669,.00089932,97.4763,234.0833,44.2176,315.9779,0,U,43946,999,40429,.1419056E-3,.3507E-4,0
EGYPTSAT-A (MISRSAT-A),2019-008A,2026-05-15T07:36:56.833344,14.72265622,.00013195,98.0058,200.5631,79.3863,280.7493,0,U,44047,999,38840,.8878444E-5,.7E-7,0
